{"type":"FeatureCollection","features":[{"type":"Feature","properties":{"website":"www.hetnotendopje.be","language:nl":"yes","capacity":158,"amenity":"kindergarten","isced:2011:level":"early_education","email":"info@hetnotendopje.be","name":"GO! kleuterschool Het Notendopje","phone":"03 354 30 23"},"geometry":{"type":"Point","coordinates":[4.518958970540143,51.23009284700881]}},{"type":"Feature","properties":{"website":"www.sjbbrussel.be","language:nl":"yes","capacity":91,"amenity":"kindergarten","isced:2011:level":"early_education","email":"hilde.gryseels@sjbbrussel.be","name":"Vrije Kleuterschool Sint-Jan Berchmanscollege","phone":"02 511 47 98"},"geometry":{"type":"Point","coordinates":[4.3454948954455945,50.8412549860197]}},{"type":"Feature","properties":{"website":"www.parukschool.be","language:nl":"yes","capacity":109,"amenity":"kindergarten","isced:2011:level":"early_education","email":"dir.pask@katoba.be","name":"Vrije Kleuterschool - Paruckschool","phone":"02 410 83 64"},"geometry":{"type":"Point","coordinates":[4.319680937555135,50.8587403843784]}},{"type":"Feature","properties":{"website":"www.sni.be/","language:nl":"yes","capacity":157,"amenity":"kindergarten","isced:2011:level":"early_education","email":"ann.debrabanter@sni.be","name":"Vrije Kleuterschool - Sint-Niklaasinstituut","phone":"02 523 15 20"},"geometry":{"type":"Point","coordinates":[4.286057518316445,50.813200108611746]}},{"type":"Feature","properties":{"website":"","language:nl":"yes","capacity":168,"amenity":"kindergarten","isced:2011:level":"early_education","email":"kleuterschool@materdei-spw.be","name":"Vrije Kleuterschool - Mater Dei","phone":"02 779 09 94"},"geometry":{"type":"Point","coordinates":[4.459667114651789,50.83346306363091]}},{"type":"Feature","properties":{"website":"www.gvbslembeek.be/ks","language:nl":"yes","capacity":208,"amenity":"kindergarten","isced:2011:level":"early_education","email":"directie@sanctamariakleuterschool.be","name":"Vrije Kleuterschool - Sancta Maria","phone":"02 361 13 62"},"geometry":{"type":"Point","coordinates":[4.22397489325328,50.717879157053126]}},{"type":"Feature","properties":{"website":"www.nestje.be","language:nl":"yes","capacity":20,"amenity":"kindergarten","isced:2011:level":"early_education","email":"kleuterschool.leerbeek@gooik.be","name":"Gemeentelijke Kleuterschool Het Nestje","phone":"02 532 46 99"},"geometry":{"type":"Point","coordinates":[4.12209857517325,50.77676207175226]}},{"type":"Feature","properties":{"website":"www.vrijekleuterschooltpleintje.be","language:nl":"yes","capacity":180,"amenity":"kindergarten","isced:2011:level":"early_education","email":"directie@vrijekleuterschooltpleintje.be","name":"Vrije Kleuterschool 't Pleintje","phone":"02 452 56 55"},"geometry":{"type":"Point","coordinates":[4.201532679467568,50.91054526852467]}},{"type":"Feature","properties":{"website":"www.hetklimmertje.be","language:nl":"yes","capacity":214,"amenity":"kindergarten","isced:2011:level":"early_education","email":"directie@vrijekleuterschoolzellik.be","name":"Vrije Kleuterschool Het Klimmertje","phone":"02 466 25 61"},"geometry":{"type":"Point","coordinates":[4.277267542345884,50.88353461776763]}},{"type":"Feature","properties":{"website":"www.kleinkleinkleuterke.be","language:nl":"yes","capacity":96,"amenity":"kindergarten","isced:2011:level":"early_education","email":"directie@kleinkleinkleuterke.be","name":"Vrije Kleuterschool Klein Klein Kleuterke","phone":"02 453 93 21"},"geometry":{"type":"Point","coordinates":[4.214082833432581,50.877095709691574]}},{"type":"Feature","properties":{"website":"www.triptrapschool.be","language:nl":"yes","capacity":168,"amenity":"kindergarten","isced:2011:level":"early_education","email":"directie@triptrapschool.be","name":"Vrije Kleuterschool Trip Trap","phone":"02 569 20 58"},"geometry":{"type":"Point","coordinates":[4.194723395805705,50.83681492489819]}},{"type":"Feature","properties":{"website":"www.liedekerke.be/dolfijn","language:nl":"yes","capacity":54,"amenity":"kindergarten","isced:2011:level":"early_education","email":"gki@liedekerke.be","name":"Gemeentelijke Kleuterschool - Dol-Fijn","phone":"053 66 37 19"},"geometry":{"type":"Point","coordinates":[4.073835277231198,50.85666564150583]}},{"type":"Feature","properties":{"website":"www.vbs-prinsenhof.be","language:nl":"yes","capacity":262,"amenity":"kindergarten","isced:2011:level":"early_education","email":"elke.verlinden@vbs-prinsenhof.be","name":"Vrije Kleuterschool - Prinsenhof","phone":"02 270 94 80"},"geometry":{"type":"Point","coordinates":[4.37276342690079,50.930806891123]}},{"type":"Feature","properties":{"website":"www.kleuterschoolterdreef.be","language:nl":"yes","capacity":167,"amenity":"kindergarten","isced:2011:level":"early_education","email":"directie@kleuterschoolterdreef.be","name":"Vrije Kleuterschool Ter Dreef","phone":"052 37 28 27"},"geometry":{"type":"Point","coordinates":[4.230571783473177,50.962206745394724]}},{"type":"Feature","properties":{"website":"www.gkls-maleizen.be","language:nl":"yes","capacity":58,"amenity":"kindergarten","isced:2011:level":"early_education","email":"directie@gkls-maleizen.be","name":"Gemeentelijke Kleuterschool - Lotharingenkruis","phone":"02 687 22 57"},"geometry":{"type":"Point","coordinates":[4.497079061089429,50.743902150375106]}},{"type":"Feature","properties":{"website":"www.dezandkorrel.info","language:nl":"yes","capacity":75,"amenity":"kindergarten","isced:2011:level":"early_education","email":"kleuterschooldezandkorrel@gmail.com","name":"Vrije Kleuterschool","phone":"02 751 72 95"},"geometry":{"type":"Point","coordinates":[4.478309023408079,50.91954538523066]}},{"type":"Feature","properties":{"website":"www.stedelijkonderwijs.be/dekameleon","language:nl":"yes","capacity":181,"amenity":"kindergarten","isced:2011:level":"early_education","email":"dekameleon@so.antwerpen.be","name":"Stedelijke Kleuterschool - De Kameleon","phone":"03 292 21 80"},"geometry":{"type":"Point","coordinates":[4.38178962081602,51.19048826124994]}},{"type":"Feature","properties":{"website":"www.stedelijkonderwijs.be/debijtjes","language:nl":"yes","capacity":111,"amenity":"kindergarten","isced:2011:level":"early_education","email":"debijtjes@so.antwerpen.be","name":"Stedelijke Basisschool De Bijtjes","phone":"03 334 39 80"},"geometry":{"type":"Point","coordinates":[4.425781085847102,51.220243616383904]}},{"type":"Feature","properties":{"website":"www.stedelijkonderwijs.be/detandem","language:nl":"yes","capacity":252,"amenity":"kindergarten","isced:2011:level":"early_education","email":"kleuter.detandem@so.antwerpen.be","name":"Stedelijke Kleuterschool - De Tandem","phone":"03 4324120"},"geometry":{"type":"Point","coordinates":[4.390241510363112,51.18760171098315]}},{"type":"Feature","properties":{"website":"www.stedelijkonderwijs.be/demusjes","language:nl":"yes","capacity":223,"amenity":"kindergarten","isced:2011:level":"early_education","email":"demusjes@so.antwerpen.be","name":"Stedelijke Kleuterschool - De Musjes","phone":"03 224 11 80"},"geometry":{"type":"Point","coordinates":[4.428248903128236,51.22489822272259]}},{"type":"Feature","properties":{"website":"","language:nl":"yes","capacity":118,"amenity":"kindergarten","isced:2011:level":"early_education","email":"baisrachel@skynet.be","name":"Vrije Kleuterschool - Bais Rachel","phone":"03 281 30 00"},"geometry":{"type":"Point","coordinates":[4.4225742769678,51.207446020809044]}},{"type":"Feature","properties":{"website":"www.virgomaria.be","language:nl":"yes","capacity":257,"amenity":"kindergarten","isced:2011:level":"early_education","email":"ks@virgomaria.be","name":"Vrije Kleuterschool Virgo Maria","phone":"03 645 56 29"},"geometry":{"type":"Point","coordinates":[4.4432594548970155,51.24838438932945]}},{"type":"Feature","properties":{"website":"www.stedelijkonderwijs.be/degroeneegel","language:nl":"yes","capacity":158,"amenity":"kindergarten","isced:2011:level":"early_education","email":"degroeneegel@so.antwerpen.be","name":"Stedelijke Kleuterschool - De Groene Egel","phone":"03 324 20 64"},"geometry":{"type":"Point","coordinates":[4.464047356620825,51.23146269329102]}},{"type":"Feature","properties":{"website":"www.stedelijkonderwijs.be/koekatoe","language:nl":"yes","capacity":173,"amenity":"kindergarten","isced:2011:level":"early_education","email":"koekatoe@so.antwerpen.be","name":"Stedelijke Kleuterschool - Koekatoe","phone":"03 334 39 70"},"geometry":{"type":"Point","coordinates":[4.488249331075762,51.22349496149895]}},{"type":"Feature","properties":{"website":"www.mariaberg.be","language:nl":"yes","capacity":445,"amenity":"kindergarten","isced:2011:level":"early_education","email":"kleuterschool@mariaberg.be","name":"Vrije Kleuterschool - Mariaberg","phone":"03 667 37 23"},"geometry":{"type":"Point","coordinates":[4.461335362131286,51.470113859732145]}},{"type":"Feature","properties":{"website":"www.stedelijkonderwijs.be/devlinderboom","language:nl":"yes","capacity":333,"amenity":"kindergarten","isced:2011:level":"early_education","email":"kleuter.de.vlinderboom@so.antwerpen.be","name":"Stedelijke Kleuterschool- De Vlinderboom","phone":"03 334 03 80"},"geometry":{"type":"Point","coordinates":[4.45232678425928,51.20230514206207]}},{"type":"Feature","properties":{"website":"www.wonderwijzer.be","language:nl":"yes","capacity":143,"amenity":"kindergarten","isced:2011:level":"early_education","email":"directie.kleuterschool@wonderwijzer.be","name":"Vrije Kleuterschool - Wonderwijzer","phone":"03 384 06 28"},"geometry":{"type":"Point","coordinates":[4.584418271905066,51.2380712086149]}},{"type":"Feature","properties":{"website":"www.deluchtballon-herenthout.be","language:nl":"yes","capacity":173,"amenity":"kindergarten","isced:2011:level":"early_education","email":"directie@vks-deluchtballon.be","name":"Vrije Kleuterschool - De Luchtballon","phone":"014 51 30 78"},"geometry":{"type":"Point","coordinates":[4.756980142390784,51.13698609778614]}},{"type":"Feature","properties":{"website":"www.sjt-kleuter.be","language:nl":"yes","capacity":156,"amenity":"kindergarten","isced:2011:level":"early_education","email":"directie@sjt-kleuter.be","name":"Vrije Kleuterschool Sint-Jozefcollege","phone":"014 41 89 11"},"geometry":{"type":"Point","coordinates":[4.951912437821903,51.32168385182608]}},{"type":"Feature","properties":{"website":"het-moleke.be","language:nl":"yes","capacity":322,"amenity":"kindergarten","isced:2011:level":"early_education","email":"directie@het-moleke.be","name":"Vrije Kleuterschool - Het Moleke","phone":"03 314 12 69"},"geometry":{"type":"Point","coordinates":[4.7567724830767215,51.35036582393112]}},{"type":"Feature","properties":{"website":"www.heilig-graf.be","language:nl":"yes","capacity":220,"amenity":"kindergarten","isced:2011:level":"early_education","email":"vos.directieks@heilig-graf.be","name":"Vrije Kleuterschool - Heilig Graf","phone":"014 61 43 29"},"geometry":{"type":"Point","coordinates":[4.886507657254665,51.311230838003304]}},{"type":"Feature","properties":{"website":"www.vbsrozenberg.be","language:nl":"yes","capacity":209,"amenity":"kindergarten","isced:2011:level":"early_education","email":"directie.ks@vbsrozenberg.be","name":"Vrije Kleuterschool - De Tovertuin","phone":"014 34 74 09"},"geometry":{"type":"Point","coordinates":[5.120946791085035,51.18800586398539]}},{"type":"Feature","properties":{"website":"www.kleuterschool-wiekevorst.be","language:nl":"yes","capacity":96,"amenity":"kindergarten","isced:2011:level":"early_education","email":"directie@kleuterschool-wiekevorst.be","name":"Vrije Kleuterschool - De Kleine Sint-Jan","phone":"014 26 07 98"},"geometry":{"type":"Point","coordinates":[4.793525499840964,51.11020861391263]}},{"type":"Feature","properties":{"website":"www.kogeka.be/sintdimpnabasisschool.be/","language:nl":"yes","capacity":214,"amenity":"kindergarten","isced:2011:level":"early_education","email":"nicole.boonen@kogeka.be","name":"Vrije Kleuterschool - Sint-Dimpna","phone":"014 58 91 30"},"geometry":{"type":"Point","coordinates":[5.00028465233613,51.161640021872316]}},{"type":"Feature","properties":{"website":"www.vks-bosvriendje.be","language:nl":"yes","capacity":63,"amenity":"kindergarten","isced:2011:level":"early_education","email":"info@vks-bosvriendje.be","name":"Vrije Kleuterschool - 't Bosvriendje","phone":"014 55 70 40"},"geometry":{"type":"Point","coordinates":[4.90466668877662,51.22386443643333]}},{"type":"Feature","properties":{"website":"www.vks-klimtoren.be","language:nl":"yes","capacity":145,"amenity":"kindergarten","isced:2011:level":"early_education","email":"info@vks-klimtoren.be","name":"Vrije Kleuterschool - De Klimtoren","phone":"014 85 00 66"},"geometry":{"type":"Point","coordinates":[4.964426924419403,51.23721322407757]}},{"type":"Feature","properties":{"website":"www.kleutetrschoolhoeven.be","language:nl":"yes","capacity":33,"amenity":"kindergarten","isced:2011:level":"early_education","email":"info@hoeven.kobart.be","name":"Vrije Kleuterschool - Hoeven","phone":"014 37 07 78"},"geometry":{"type":"Point","coordinates":[5.026416137151568,51.25887870286733]}},{"type":"Feature","properties":{"website":"www.spelewei.be","language:nl":"yes","capacity":165,"amenity":"kindergarten","isced:2011:level":"early_education","email":"secretariaat@spelewei.be","name":"Vrije Kleuterschool - Spelewei","phone":"014 37 94 76"},"geometry":{"type":"Point","coordinates":[5.120513021301044,51.27102695965755]}},{"type":"Feature","properties":{"website":"www.campussintursula.be","language:nl":"yes","capacity":201,"amenity":"kindergarten","isced:2011:level":"early_education","email":"directie.kleuter@klimoplier.be","name":"Vrije Kleuterschool - Sint-Ursula Klim Op","phone":"03 491 92 36"},"geometry":{"type":"Point","coordinates":[4.565323765652618,51.13147667035262]}},{"type":"Feature","properties":{"website":"www.parkschoolmortsel.be","language:nl":"yes","capacity":254,"amenity":"kindergarten","isced:2011:level":"early_education","email":"parkschoolkleuter@mortsel.be","name":"Gemeentelijke Kleuterschool - Parkschool Mortsel","phone":"03 449 06 28"},"geometry":{"type":"Point","coordinates":[4.450734148343459,51.16768350278429]}},{"type":"Feature","properties":{"website":"www.debasisduffel.be","language:nl":"yes","capacity":218,"amenity":"kindergarten","isced:2011:level":"early_education","email":"info@kleuterschoolduffel.be","name":"Vrije Kleuterschool","phone":"015 30 38 32"},"geometry":{"type":"Point","coordinates":[4.4995449041069495,51.09287308069519]}},{"type":"Feature","properties":{"website":"www.PULHOF-KS.BE","language:nl":"yes","capacity":351,"amenity":"kindergarten","isced:2011:level":"early_education","email":"info@pulhof-ks.be","name":"Vrije Kleuterschool","phone":"03 230 12 78"},"geometry":{"type":"Point","coordinates":[4.42680529953655,51.18154890260619]}},{"type":"Feature","properties":{"website":"www.sint-ursula-wilrijk.be","language:nl":"yes","capacity":277,"amenity":"kindergarten","isced:2011:level":"early_education","email":"kristine.verelst@suwvb.be","name":"Vrije Kleuterschool","phone":"03 827 92 93"},"geometry":{"type":"Point","coordinates":[4.400427354027824,51.17083617989206]}},{"type":"Feature","properties":{"website":"www.kleuterschoolaartselaar.be","language:nl":"yes","capacity":215,"amenity":"kindergarten","isced:2011:level":"early_education","email":"kleuterschoolaartselaar@telenet.be","name":"Vrije Kleuterschool","phone":"03 887 58 04"},"geometry":{"type":"Point","coordinates":[4.385086286016469,51.132908560981065]}},{"type":"Feature","properties":{"website":"www.deregenboog.sjabi.be","language:nl":"yes","capacity":109,"amenity":"kindergarten","isced:2011:level":"early_education","email":"directie@deregenboogkalfort.be","name":"Vrije Kleuterschool - De Regenboog","phone":"03 889 82 88"},"geometry":{"type":"Point","coordinates":[4.299248314361894,51.07072545563326]}},{"type":"Feature","properties":{"website":"www.olvpks.be","language:nl":"yes","capacity":157,"amenity":"kindergarten","isced:2011:level":"early_education","email":"nathalie.smet@olvpks.be","name":"Vrije Kleuterschool - Onze-Lieve-Vrouw-Presentatie","phone":"03 889 44 26"},"geometry":{"type":"Point","coordinates":[4.236891939461067,51.100065559586234]}},{"type":"Feature","properties":{"website":"www.zonnebloem-sint-amands.be","language:nl":"yes","capacity":136,"amenity":"kindergarten","isced:2011:level":"early_education","email":"kleuter@zonnebloem-sint-amands.be","name":"Vrije Kleuterschool","phone":"052 33 52 23"},"geometry":{"type":"Point","coordinates":[4.204771403541876,51.053050687038315]}},{"type":"Feature","properties":{"website":"www.hollebeekscholen.be","language:nl":"yes","capacity":241,"amenity":"kindergarten","isced:2011:level":"early_education","email":"kleuter.hollebeek@belgacom.net","name":"Vrije Kleuterschool Hollebeek","phone":"03 771 37 62"},"geometry":{"type":"Point","coordinates":[4.229695037366492,51.129782346390016]}},{"type":"Feature","properties":{"website":"www.kleuterschoolsint-agnes.be","language:nl":"yes","capacity":468,"amenity":"kindergarten","isced:2011:level":"early_education","email":"directie@kleuterschoolsint-agnes.be","name":"Vrije Kleuterschool","phone":"03 827 65 64"},"geometry":{"type":"Point","coordinates":[4.354703829649263,51.17293435529836]}},{"type":"Feature","properties":{"website":"www.dekrinkelrups.be","language:nl":"yes","capacity":301,"amenity":"kindergarten","isced:2011:level":"early_education","email":"dekrinkelrups@ksas.be","name":"Vrije Kleuterschool","phone":"03 252 58 88"},"geometry":{"type":"Point","coordinates":[4.330848258230525,51.21765473927409]}},{"type":"Feature","properties":{"website":"www.kleuterschoolmelsele.be","language:nl":"yes","capacity":259,"amenity":"kindergarten","isced:2011:level":"early_education","email":"directie-olvg@kleuterschoolmelsele.be","name":"Vrije Kleuterschool - OLV van Gaverland","phone":"03 775 74 76"},"geometry":{"type":"Point","coordinates":[4.286646657634207,51.221704405524605]}},{"type":"Feature","properties":{"website":"www.pieternel.be","language:nl":"yes","capacity":109,"amenity":"kindergarten","isced:2011:level":"early_education","email":"pieternel@pieternel.be","name":"Vrije Kleuterschool - Pieternel","phone":"03 777 14 93"},"geometry":{"type":"Point","coordinates":[4.094522992354566,51.19485673516146]}},{"type":"Feature","properties":{"website":"www.gekkoschool.be","language:nl":"yes","capacity":193,"amenity":"kindergarten","isced:2011:level":"early_education","email":"directie@gekkoschool.be","name":"Gemeentelijke Kleuterschool - GEKKO","phone":"015 51 22 61"},"geometry":{"type":"Point","coordinates":[4.549111993591181,51.021778478377094]}},{"type":"Feature","properties":{"website":"www.dehuffeltjes.be","language:nl":"yes","capacity":102,"amenity":"kindergarten","isced:2011:level":"early_education","email":"de_huffeltjes@hotmail.com","name":"Vrije Kleuterschool - De Huffeltjes","phone":"052 30 02 20"},"geometry":{"type":"Point","coordinates":[4.259736871458384,50.993131989647345]}},{"type":"Feature","properties":{"website":"www.pitwespelaar.be","language:nl":"yes","capacity":68,"amenity":"kindergarten","isced:2011:level":"early_education","email":"directie@pitwespelaar.be","name":"Vrije Kleuterschool Pit","phone":"016 60 51 71"},"geometry":{"type":"Point","coordinates":[4.633030722260677,50.95955057321843]}},{"type":"Feature","properties":{"website":"materdei-leuven.be","language:nl":"yes","capacity":132,"amenity":"kindergarten","isced:2011:level":"early_education","email":"directie.kleuter@materdei-leuven.be","name":"Vrije Kleuterschool Mater Dei","phone":"016 30 90 26"},"geometry":{"type":"Point","coordinates":[4.690034148940927,50.8788562117482]}},{"type":"Feature","properties":{"website":"www.tokkerzeeltje.be","language:nl":"yes","capacity":43,"amenity":"kindergarten","isced:2011:level":"early_education","email":"directie@tokkerzeeltje.be","name":"Vrije Kleuterschool - 't Okkerzeeltje","phone":"016 65 54 85"},"geometry":{"type":"Point","coordinates":[4.565680870452059,50.919313603286206]}},{"type":"Feature","properties":{"website":"www.derank.be","language:nl":"yes","capacity":80,"amenity":"kindergarten","isced:2011:level":"early_education","email":"info@derank.be","name":"Vrije Kleuterschool De Rank","phone":"016 58 20 68"},"geometry":{"type":"Point","coordinates":[4.752888612895781,50.94756889219036]}},{"type":"Feature","properties":{"website":"www.speelkriebel.be","language:nl":"yes","capacity":223,"amenity":"kindergarten","isced:2011:level":"early_education","email":"directie.despeelkriebel@sgarchipel.be","name":"Vrije Kleuterschool Blauwput De Speelkriebel","phone":"016 25 18 53"},"geometry":{"type":"Point","coordinates":[4.724396358176656,50.885220029254356]}},{"type":"Feature","properties":{"website":"www.ksdiest.be","language:nl":"yes","capacity":36,"amenity":"kindergarten","isced:2011:level":"early_education","email":"inge.herbots@ksdiest.be","name":"Vrije Kleuterschool - De notelaar","phone":"013 31 47 95"},"geometry":{"type":"Point","coordinates":[5.019151482781453,50.98016697807919]}},{"type":"Feature","properties":{"website":"www.gvksdekiem.be","language:nl":"yes","capacity":18,"amenity":"kindergarten","isced:2011:level":"early_education","email":"directie@gvksdekiem.be","name":"Vrije Kleuterschool","phone":"011 58 78 70"},"geometry":{"type":"Point","coordinates":[5.038284235474118,50.87530581724157]}},{"type":"Feature","properties":{"website":"","language:nl":"yes","capacity":19,"amenity":"kindergarten","isced:2011:level":"early_education","email":"gkskersbeek@kortenaken.be","name":"Gemeentelijke Kleuterschool","phone":"016 77 84 11"},"geometry":{"type":"Point","coordinates":[4.994158616719664,50.887343956272154]}},{"type":"Feature","properties":{"website":"www.dekleinepicasso.be","language:nl":"yes","capacity":59,"amenity":"kindergarten","isced:2011:level":"early_education","email":"dekleinepicasso@zoutleeuw.be","name":"Gemeentelijke Kleuterschool De Kleine Picasso","phone":"011 78 27 94"},"geometry":{"type":"Point","coordinates":[5.1318091438461675,50.834711743771514]}},{"type":"Feature","properties":{"website":"www.vksdewegwijzer.be","language:nl":"yes","capacity":8,"amenity":"kindergarten","isced:2011:level":"early_education","email":"info@vksdewegwijzer.be","name":"Vrije Kleuterschool - De Wegwijzer","phone":"011 58 41 44"},"geometry":{"type":"Point","coordinates":[5.059065761399694,50.802593640891224]}},{"type":"Feature","properties":{"website":"www.kt-scholengroep.be","language:nl":"yes","capacity":169,"amenity":"kindergarten","isced:2011:level":"early_education","email":"mozaiek@kt-scholengroep.be","name":"Vrije Kleuterschool Kindercampus Mozaïek","phone":"011 21 17 64"},"geometry":{"type":"Point","coordinates":[5.34630646816957,50.94692967041045]}},{"type":"Feature","properties":{"website":"www.de-kleurdoos.be","language:nl":"yes","capacity":292,"amenity":"kindergarten","isced:2011:level":"early_education","email":"secretariaat@de-kleurdoos.be","name":"Vrije Kleuterschool De Kleurdoos","phone":"011 81 40 74"},"geometry":{"type":"Point","coordinates":[5.36403820138532,50.99183722701366]}},{"type":"Feature","properties":{"website":"www.dekleinekunstenaar.be","language:nl":"yes","capacity":254,"amenity":"kindergarten","isced:2011:level":"early_education","email":"dekleinekunstenaar@houthalen-helchteren.be","name":"Gemeentelijke Kleuterschool - De Kleine Kunstenaar","phone":"011 49 23 92"},"geometry":{"type":"Point","coordinates":[5.483745427031022,51.02408758962757]}},{"type":"Feature","properties":{"website":"www.kleinereus.be","language:nl":"yes","capacity":169,"amenity":"kindergarten","isced:2011:level":"early_education","email":"directie.dekleinereus@gmail.com","name":"Vrije Kleuterschool - De Kleine Reus","phone":"011 60 64 94"},"geometry":{"type":"Point","coordinates":[5.386527095571776,51.04215734662019]}},{"type":"Feature","properties":{"website":"www.kleuterschoolhelchteren.be","language:nl":"yes","capacity":159,"amenity":"kindergarten","isced:2011:level":"early_education","email":"directie.klimop@gmail.com","name":"Vrije Kleuterschool Don Bosco Klim-Op","phone":"011 52 18 67"},"geometry":{"type":"Point","coordinates":[5.388942350664672,51.05482067338508]}},{"type":"Feature","properties":{"website":"www.toverfluitheusden.be","language:nl":"yes","capacity":162,"amenity":"kindergarten","isced:2011:level":"early_education","email":"directie@toverfluitheusden.be","name":"Vrije Kleuterschool - De Toverfluit","phone":"011 45 11 24"},"geometry":{"type":"Point","coordinates":[5.285034024442833,51.03437993022759]}},{"type":"Feature","properties":{"website":"www.kleuterschoolpagadder.be","language:nl":"yes","capacity":118,"amenity":"kindergarten","isced:2011:level":"early_education","email":"directie@vkspagadder.be","name":"Vrije Kleuterschool - Pagadder","phone":"011 57 26 30"},"geometry":{"type":"Point","coordinates":[5.308858949627541,51.04510505938133]}},{"type":"Feature","properties":{"website":"www.dezandkorrel.be","language:nl":"yes","capacity":208,"amenity":"kindergarten","isced:2011:level":"early_education","email":"kleuterschool@dezandkorrel.be","name":"Vrije Kleuterschool - De Zandkorrel","phone":"011 73 29 20"},"geometry":{"type":"Point","coordinates":[5.364178085140786,51.126318528383024]}},{"type":"Feature","properties":{"website":"www.delinde-overpelt.be","language:nl":"yes","capacity":253,"amenity":"kindergarten","isced:2011:level":"early_education","email":"dirk.vanseggelen@bs-delinde.be","name":"Vrije Kleuterschool - De Linde","phone":"011 64 26 41"},"geometry":{"type":"Point","coordinates":[5.426719655428809,51.21018245454058]}},{"type":"Feature","properties":{"website":"www.derobbertkleuter.be","language:nl":"yes","capacity":204,"amenity":"kindergarten","isced:2011:level":"early_education","email":"directie@derobbertkleuter.be","name":"Vrije Kleuterschool","phone":"011 44 58 10"},"geometry":{"type":"Point","coordinates":[5.546734456581181,51.25045941694408]}},{"type":"Feature","properties":{"website":"www.kleuterschoolkaulille.be","language:nl":"yes","capacity":162,"amenity":"kindergarten","isced:2011:level":"early_education","email":"directie@vliegerke.be","name":"Vrije Kleuterschool 't Vliegerke","phone":"011 44 71 32"},"geometry":{"type":"Point","coordinates":[5.5207797762837085,51.187943576252394]}},{"type":"Feature","properties":{"website":"www.deschom.be","language:nl":"yes","capacity":201,"amenity":"kindergarten","isced:2011:level":"early_education","email":"secretariaat@deschom.be","name":"Vrije Kleuterschool","phone":"089 36 78 13"},"geometry":{"type":"Point","coordinates":[5.476095412431371,50.95744606112106]}},{"type":"Feature","properties":{"website":"www.paleisdiepenbeek.be","language:nl":"yes","capacity":144,"amenity":"kindergarten","isced:2011:level":"early_education","email":"kleuterpaleis@paleisdiepenbeek.be","name":"Vrije Kleuterschool","phone":"011 35 23 44"},"geometry":{"type":"Point","coordinates":[5.42534207538843,50.90716550301826]}},{"type":"Feature","properties":{"website":"www.kleuterschoolmeeswijk.be","language:nl":"yes","capacity":42,"amenity":"kindergarten","isced:2011:level":"early_education","email":"directie@kleuterschoolmeeswijk.be","name":"Vrije Kleuterschool","phone":"089 75 20 53"},"geometry":{"type":"Point","coordinates":[5.745562050405486,50.99948518567881]}},{"type":"Feature","properties":{"website":"www.kleuterschool-opglabbeek.be","language:nl":"yes","capacity":160,"amenity":"kindergarten","isced:2011:level":"early_education","email":"info@kleuterschool-opglabbeek.be","name":"Vrije Kleuterschool - Sint-Lambertus","phone":"089 85 52 71"},"geometry":{"type":"Point","coordinates":[5.583421816695652,51.045341368084934]}},{"type":"Feature","properties":{"website":"www.debeverburcht.be","language:nl":"yes","capacity":282,"amenity":"kindergarten","isced:2011:level":"early_education","email":"info@debeverburcht.be","name":"Vrije Kleuterschool - De Beverburcht","phone":"089 56 71 66"},"geometry":{"type":"Point","coordinates":[5.78673196204164,51.09335841999769]}},{"type":"Feature","properties":{"website":"www.hetreepje.be","language:nl":"yes","capacity":25,"amenity":"kindergarten","isced:2011:level":"early_education","email":"het.reepje@skynet.be","name":"Vrije Kleuterschool - 't Reepje","phone":"012 23 85 52"},"geometry":{"type":"Point","coordinates":[5.429552402001013,50.80730988064398]}},{"type":"Feature","properties":{"website":"www.csjt.be","language:nl":"yes","capacity":121,"amenity":"kindergarten","isced:2011:level":"early_education","email":"info@csjt.be","name":"Vrije Kleuterschool Campus \"Sint-Jan\"","phone":"012 22 00 10"},"geometry":{"type":"Point","coordinates":[5.464443885490166,50.77758992238363]}},{"type":"Feature","properties":{"website":"www.kleuterschooldepuzzel.be","language:nl":"yes","capacity":51,"amenity":"kindergarten","isced:2011:level":"early_education","email":"kleuterschool.depuzzel@gmail.com","name":"Vrije Kleuterschool - De Puzzel","phone":"012 26 16 12"},"geometry":{"type":"Point","coordinates":[5.419117381012695,50.78416411956033]}},{"type":"Feature","properties":{"website":"www.evermaruske.be","language:nl":"yes","capacity":39,"amenity":"kindergarten","isced:2011:level":"early_education","email":"info@evermaruske.be","name":"Vrije Kleuterschool - Evermaruske","phone":"012 39 16 74"},"geometry":{"type":"Point","coordinates":[5.442056295153586,50.748470826526656]}},{"type":"Feature","properties":{"website":"www.belhameltje.be","language:nl":"yes","capacity":67,"amenity":"kindergarten","isced:2011:level":"early_education","email":"Kobelhameltje@outlook.be","name":"Gemeentelijke Kleuterschool","phone":"011 37 69 61"},"geometry":{"type":"Point","coordinates":[5.401574203430264,50.838989821487495]}},{"type":"Feature","properties":{"website":"","language:nl":"yes","capacity":21,"amenity":"kindergarten","isced:2011:level":"early_education","email":"bastiaenssofia@live.be","name":"Vrije Kleuterschool - 't Regenboogje","phone":"012 45 53 64"},"geometry":{"type":"Point","coordinates":[5.626534397386857,50.8386420486539]}},{"type":"Feature","properties":{"website":"","language:nl":"yes","capacity":51,"amenity":"kindergarten","isced:2011:level":"early_education","email":"goudhaantje@nieuwerkerken.be","name":"Gemeentelijke Kleuterschool - Goudhaantje","phone":"011 68 19 94"},"geometry":{"type":"Point","coordinates":[5.16357099511153,50.86019315681246]}},{"type":"Feature","properties":{"website":"www.viadespeling.be","language:nl":"yes","capacity":160,"amenity":"kindergarten","isced:2011:level":"early_education","email":"kleuterschool.despeling@lkb-net.be","name":"Vrije Kleuterschool - De Speling","phone":"011 54 08 56"},"geometry":{"type":"Point","coordinates":[5.314611954639034,51.23003746152941]}},{"type":"Feature","properties":{"website":"www.vkspaal.be","language:nl":"yes","capacity":295,"amenity":"kindergarten","isced:2011:level":"early_education","email":"directie@vkspaal.be","name":"Vrije Kleuterschool - Hand in Hand","phone":"011 36 46 46"},"geometry":{"type":"Point","coordinates":[5.16832215317376,51.03897103791754]}},{"type":"Feature","properties":{"website":"www.wiebelwoud.be","language:nl":"yes","capacity":35,"amenity":"kindergarten","isced:2011:level":"early_education","email":"hanne.jacobs@kabot.be","name":"Vrije Kleuterschool - Wiebelwoud Schoot","phone":"013 67 17 59"},"geometry":{"type":"Point","coordinates":[5.040447075676894,51.06794285345952]}},{"type":"Feature","properties":{"website":"www.wiebelwoud.be","language:nl":"yes","capacity":222,"amenity":"kindergarten","isced:2011:level":"early_education","email":"hanne.jacobs@kabot.be","name":"Vrije Kleuterschool - Wiebelwoud","phone":"013 66 27 36"},"geometry":{"type":"Point","coordinates":[5.090756444382054,51.06830101267164]}},{"type":"Feature","properties":{"website":"www.dedroomvlieger.be","language:nl":"yes","capacity":6,"amenity":"kindergarten","isced:2011:level":"early_education","email":"griet.lenders@dedroomvlieger.be","name":"Vrije Kleuterschool Steenkerke","phone":"058 31 26 73"},"geometry":{"type":"Point","coordinates":[2.6747784635973906,51.07651442931535]}},{"type":"Feature","properties":{"website":"www.gemeenteschool-zwevegem.be","language:nl":"yes","capacity":250,"amenity":"kindergarten","isced:2011:level":"early_education","email":"lieve.duyck@gszwevegem.be","name":"Gemeentelijke Kleuterschool","phone":"056 28 54 50"},"geometry":{"type":"Point","coordinates":[3.343932874116382,50.81160831484702]}},{"type":"Feature","properties":{"website":"www.tschoolkerugge.be","language:nl":"yes","capacity":54,"amenity":"kindergarten","isced:2011:level":"early_education","email":"ksrugge@gmail.com","name":"Vrije Kleuterschool","phone":"056 64 77 90"},"geometry":{"type":"Point","coordinates":[3.4652842890406967,50.78033114463916]}},{"type":"Feature","properties":{"website":"www.kleuterschoolbossuit.be","language:nl":"yes","capacity":24,"amenity":"kindergarten","isced:2011:level":"early_education","email":"ks.bossuit@gmail.com","name":"Vrije Kleuterschool De Buitenkans","phone":"056 45 68 30"},"geometry":{"type":"Point","coordinates":[3.4074180388754587,50.74826148602004]}},{"type":"Feature","properties":{"website":"www.vklsbissegem.be","language:nl":"yes","capacity":180,"amenity":"kindergarten","isced:2011:level":"early_education","email":"directie@vklsbissegem.be","name":"Vrije Kleuterschool De Tandem","phone":"056 35 62 72"},"geometry":{"type":"Point","coordinates":[3.227066600140157,50.82214485059276]}},{"type":"Feature","properties":{"website":"www.gulleboom.be","language:nl":"yes","capacity":297,"amenity":"kindergarten","isced:2011:level":"early_education","email":"secretariaat@gulleboom.be","name":"Vrije Kleuterschool","phone":"056 32 79 60"},"geometry":{"type":"Point","coordinates":[3.204458172346839,50.84218704978368]}},{"type":"Feature","properties":{"website":"www.vbsspesnostra.be","language:nl":"yes","capacity":325,"amenity":"kindergarten","isced:2011:level":"early_education","email":"mieke.blomme@vbsspesnostra.be","name":"Vrije Kleuterschool - Spes Nostra","phone":"056 35 23 39"},"geometry":{"type":"Point","coordinates":[3.230462661519923,50.84582001874087]}},{"type":"Feature","properties":{"website":"www.vrijescholenkuurne.be","language:nl":"yes","capacity":116,"amenity":"kindergarten","isced:2011:level":"early_education","email":"vks.kuurne@vrijescholenkuurne.be","name":"Vrije Kleuterschool","phone":"056 71 40 99"},"geometry":{"type":"Point","coordinates":[3.285700975283332,50.84914994616221]}},{"type":"Feature","properties":{"website":"www.kleuterschool-sintlutgardis.be","language:nl":"yes","capacity":167,"amenity":"kindergarten","isced:2011:level":"early_education","email":"directie@kleuterschool-sintlutgardis.be","name":"Vrije Kleuterschool - Sint-Lutgardis","phone":"051 48 80 86"},"geometry":{"type":"Point","coordinates":[3.291113810329943,50.950751496010156]}},{"type":"Feature","properties":{"website":"www.augustijntje-ieper.be","language:nl":"yes","capacity":39,"amenity":"kindergarten","isced:2011:level":"early_education","email":"augustijnen@cdi-ieper.be","name":"Vrije Kleuterschool","phone":"057 20 65 44"},"geometry":{"type":"Point","coordinates":[2.8678537667494375,50.8537758799742]}},{"type":"Feature","properties":{"website":"www.klim.be","language:nl":"yes","capacity":254,"amenity":"kindergarten","isced:2011:level":"early_education","email":"kleuterschool@klim.be","name":"Vrije Kleuterschool - KLIM","phone":"09 221 15 11"},"geometry":{"type":"Point","coordinates":[3.716272872115934,51.029636892915505]}},{"type":"Feature","properties":{"website":"https://scholen.stad.gent/basis/terleiedebollekens","language:nl":"yes","capacity":249,"amenity":"kindergarten","isced:2011:level":"early_education","email":"terleie.dir@onderwijs.gent.be","name":"Stedelijke Kleuterschool - Ter Leie","phone":"09 323 55 20"},"geometry":{"type":"Point","coordinates":[3.7053346780220235,51.04307750183271]}},{"type":"Feature","properties":{"website":"www.edugo.be","language:nl":"yes","capacity":244,"amenity":"kindergarten","isced:2011:level":"early_education","email":"christine.lafaut@edugo.be","name":"Vrije Kleuterschool - Edugo Lourdes - Meerhout","phone":"09 259 02 92"},"geometry":{"type":"Point","coordinates":[3.762809047924757,51.080843559717096]}},{"type":"Feature","properties":{"website":"www.slw.be","language:nl":"yes","capacity":164,"amenity":"kindergarten","isced:2011:level":"early_education","email":"dorp@slw.be","name":"Vrije Kleuterschool - Sint- Laurens","phone":"09 345 06 70"},"geometry":{"type":"Point","coordinates":[3.8579193882605964,51.16736855506984]}},{"type":"Feature","properties":{"website":"www.duizendvoet.be","language:nl":"yes","capacity":210,"amenity":"kindergarten","isced:2011:level":"early_education","email":"directie@duizendvoet.be","name":"Vrije Kleuterschool - Duizendvoet","phone":"09 349 44 23"},"geometry":{"type":"Point","coordinates":[3.987155032266298,51.0995695002322]}},{"type":"Feature","properties":{"website":"","language:nl":"yes","capacity":40,"amenity":"kindergarten","isced:2011:level":"early_education","email":"kleuterschoolondersteboven@hamme.be","name":"Gemeentelijke Kleuterschool - Ondersteboven","phone":"052 48 03 82"},"geometry":{"type":"Point","coordinates":[4.132934443075961,51.103194432488735]}},{"type":"Feature","properties":{"website":"www.scs-sinaai.be","language:nl":"yes","capacity":152,"amenity":"kindergarten","isced:2011:level":"early_education","email":"christel.deck@scs-sinaai.be","name":"Vrije Kleuterschool","phone":"03 772 34 43"},"geometry":{"type":"Point","coordinates":[4.046378877658541,51.15658009385584]}},{"type":"Feature","properties":{"website":"www.wetteren.be","language:nl":"yes","capacity":82,"amenity":"kindergarten","isced:2011:level":"early_education","email":"martine.devusser@wetteren.be","name":"Gemeentelijke Kleuterschool- 't Kleuterboompje","phone":"09 369 53 94"},"geometry":{"type":"Point","coordinates":[3.889011265684084,51.000298519064096]}},{"type":"Feature","properties":{"website":"www.despelewei.be","language:nl":"yes","capacity":64,"amenity":"kindergarten","isced:2011:level":"early_education","email":"directie@despelewei.be","name":"Vrije Kleuterschool - De Spelewei","phone":"09 252 39 63"},"geometry":{"type":"Point","coordinates":[3.838631138579221,51.0098000444923]}},{"type":"Feature","properties":{"website":"www.sterrenkind.be","language:nl":"yes","capacity":118,"amenity":"kindergarten","isced:2011:level":"early_education","email":"directie@sterrenkind.be","name":"Vrije Kleuterschool","phone":"09 369 24 27"},"geometry":{"type":"Point","coordinates":[3.9291038997681,50.989047656658904]}},{"type":"Feature","properties":{"website":"www.smi-aalst.be","language:nl":"yes","capacity":310,"amenity":"kindergarten","isced:2011:level":"early_education","email":"kleuterschool.st.maarten@telenet.be","name":"Vrije Kleuterschool Sint-Maarten","phone":"053 78 22 43"},"geometry":{"type":"Point","coordinates":[4.033358338328397,50.940777268961654]}},{"type":"Feature","properties":{"website":"www.vksmorgenster.be","language:nl":"yes","capacity":272,"amenity":"kindergarten","isced:2011:level":"early_education","email":"directie@vksmorgenster.be","name":"Vrije Kleuterschool - Morgenster","phone":"053 80 49 65"},"geometry":{"type":"Point","coordinates":[3.9868039588565884,50.96560738593956]}},{"type":"Feature","properties":{"website":"www.kleuterschoolopdorp.be","language:nl":"yes","capacity":71,"amenity":"kindergarten","isced:2011:level":"early_education","email":"info@kleuterschoolopdorp.be","name":"Vrije Kleuterschool - Sint-Jozef","phone":"052 33 35 34"},"geometry":{"type":"Point","coordinates":[4.219129537496298,51.02915096230789]}},{"type":"Feature","properties":{"website":"www.kapoentje.gkslierde.be","language:nl":"yes","capacity":43,"amenity":"kindergarten","isced:2011:level":"early_education","email":"magy.vandaele@gkslierde.be","name":"Gemeentelijke Kleuterschool - 't Kapoentje","phone":"054 41 06 41"},"geometry":{"type":"Point","coordinates":[3.8640179885708172,50.80866800107373]}},{"type":"Feature","properties":{"website":"vksmadeliefje.weebly.com","language:nl":"yes","capacity":22,"amenity":"kindergarten","isced:2011:level":"early_education","email":"vks.madeliefje@hotmail.com","name":"Vrije Kleuterschool - Madeliefje","phone":"054 41 68 28"},"geometry":{"type":"Point","coordinates":[3.8977531102119323,50.79617777365982]}},{"type":"Feature","properties":{"website":"www.kleuterschool-valkenberg.be","language:nl":"yes","capacity":24,"amenity":"kindergarten","isced:2011:level":"early_education","email":"kleuterschool-valkenberg@skynet.be","name":"Vrije Kleuterschool - Valkenberg","phone":"055 42 71 82"},"geometry":{"type":"Point","coordinates":[3.7588956375693545,50.81459679832347]}},{"type":"Feature","properties":{"website":"www.hethukkelpad.be","language:nl":"yes","capacity":41,"amenity":"kindergarten","isced:2011:level":"early_education","email":"hethukkelpad@telenet.be","name":"Vrije Kleuterschool Het Hukkelpad","phone":"09 383 58 18"},"geometry":{"type":"Point","coordinates":[3.5664371150414445,50.92061487522376]}},{"type":"Feature","properties":{"website":"www.kleuterschoolhetnest.be","language:nl":"yes","capacity":28,"amenity":"kindergarten","isced:2011:level":"early_education","email":"directie.kleuterschoolhetnest@sgkruizinga.be","name":"Vrije Kleuterschool Het Nest","phone":"09 383 70 04"},"geometry":{"type":"Point","coordinates":[3.5509275796870976,50.89080628880749]}},{"type":"Feature","properties":{"website":"emmausbasisschool.op-weg.be","language:nl":"yes","capacity":227,"amenity":"kindergarten","isced:2011:level":"early_education","email":"jan.sierens@op-weg.be","name":"Vrije Kleuterschool Emmaüs","phone":"09 336 00 00"},"geometry":{"type":"Point","coordinates":[3.4454203070282228,51.084262527962345]}},{"type":"Feature","properties":{"website":"www.sintlievenkolegem.be","language:nl":"yes","capacity":240,"amenity":"kindergarten","isced:2011:level":"early_education","email":"directie.kleuter@sintlievenkolegem.be","name":"Vrije Kleuterschool - Sint Lieven Kolegem","phone":"09 226 39 77"},"geometry":{"type":"Point","coordinates":[3.693679398699174,51.07517415980474]}},{"type":"Feature","properties":{"website":"www.kleuterschoolvinderhoute.be","language:nl":"yes","capacity":67,"amenity":"kindergarten","isced:2011:level":"early_education","email":"directie@kleuterschoolvinderhoute.be","name":"Vrije Kleuterschool-De Speelfontein","phone":"09 226 96 40"},"geometry":{"type":"Point","coordinates":[3.6381263972985742,51.087374175510284]}},{"type":"Feature","properties":{"website":"www.kersenpitje.be","language:nl":"yes","capacity":219,"amenity":"kindergarten","isced:2011:level":"early_education","email":"directie@kersenpitje.be","name":"Vrije Kleuterschool - 't Kersenpitje","phone":"09 377 86 89"},"geometry":{"type":"Point","coordinates":[3.6020019626724302,51.15235834631392]}},{"type":"Feature","properties":{"website":"www.kleuterschooldekangoeroe.be","language:nl":"yes","capacity":62,"amenity":"kindergarten","isced:2011:level":"early_education","email":"directie@kleuterschooldekangoeroe.be","name":"Vrije Kleuterschool De Kangoeroe","phone":"09 379 87 24"},"geometry":{"type":"Point","coordinates":[3.628017067971502,51.27357525431779]}},{"type":"Feature","properties":{"website":"www.dekleuterark.be","language:nl":"yes","capacity":205,"amenity":"kindergarten","isced:2011:level":"early_education","email":"dekleuterark@maricolen.be","name":"VKS De Kleuterark","phone":"050 72 98 87"},"geometry":{"type":"Point","coordinates":[3.445565783669208,51.20791738876307]}},{"type":"Feature","properties":{"website":"www.basisschoolhhh.be","language:nl":"yes","capacity":287,"amenity":"kindergarten","isced:2011:level":"early_education","email":"directie.hhh.kleuter@sgarchipel.be","name":"Vrije Kleuterschool - Heilig Hart","phone":"016 39 90 35"},"geometry":{"type":"Point","coordinates":[4.700107763921282,50.85792183295571]}},{"type":"Feature","properties":{"website":"www.ark123.be","language:nl":"yes","capacity":302,"amenity":"kindergarten","isced:2011:level":"early_education","email":"info@ark123.be","name":"Vrije Kleuterschool - De Ark","phone":"016 25 96 63"},"geometry":{"type":"Point","coordinates":[4.722813087862643,50.87129145035304]}},{"type":"Feature","properties":{"website":"www.groenendaal.be","language:nl":"yes","capacity":248,"amenity":"kindergarten","isced:2011:level":"early_education","email":"kleuterschool@groenendaal.be","name":"Vrije Kleuterschool","phone":"03 645 31 30"},"geometry":{"type":"Point","coordinates":[4.438181084829283,51.242662148635524]}},{"type":"Feature","properties":{"website":"www.sintmichiel.be","language:nl":"yes","capacity":227,"amenity":"kindergarten","isced:2011:level":"early_education","email":"kleuterlagersintmichiel@tofkids.be","name":"Vrije Kleuterschool - Sint-Michiel","phone":"011 34 31 34"},"geometry":{"type":"Point","coordinates":[5.256741583004548,51.1154392663568]}},{"type":"Feature","properties":{"website":"www.ks-vorselaar.be","language:nl":"yes","capacity":193,"amenity":"kindergarten","isced:2011:level":"early_education","email":"directie@ks-vorselaar.be","name":"Vrije Kleuterschool De Duizendpoot","phone":"014 50 93 40"},"geometry":{"type":"Point","coordinates":[4.770827654131114,51.20023618793645]}},{"type":"Feature","properties":{"website":"www.vrijekleuterschooloostmalle.be","language:nl":"yes","capacity":199,"amenity":"kindergarten","isced:2011:level":"early_education","email":"directie.kleuters@immaculata-oostmalle.be","name":"Vrije Kleuterschool - Immaculata","phone":"03 311 67 58"},"geometry":{"type":"Point","coordinates":[4.738107364040018,51.30374352702306]}},{"type":"Feature","properties":{"website":"www.regpacho.be","language:nl":"yes","capacity":170,"amenity":"kindergarten","isced:2011:level":"early_education","email":"directie.ks@regpacho.net","name":"Vrije Kleuterschool - Regina Pacis 1","phone":"03 455 03 55"},"geometry":{"type":"Point","coordinates":[4.475812785763025,51.156544585455435]}},{"type":"Feature","properties":{"website":"www.pbsvoeren.be","language:nl":"yes","capacity":25,"amenity":"kindergarten","isced:2011:level":"early_education","email":"pks.voeren@campusvoeren.be","name":"Provinciale Kleuterschool","phone":"04 381 23 00"},"geometry":{"type":"Point","coordinates":[5.813918132662899,50.74968908757526]}},{"type":"Feature","properties":{"website":"www.rckleuter.be","language:nl":"yes","capacity":248,"amenity":"kindergarten","isced:2011:level":"early_education","email":"directie@rckleuter.be","name":"Vrije Kleuterschool Regina Caeli","phone":"02 568 18 38"},"geometry":{"type":"Point","coordinates":[4.278825728730341,50.84096284332057]}},{"type":"Feature","properties":{"website":"www.altena.be","language:nl":"yes","capacity":240,"amenity":"kindergarten","isced:2011:level":"early_education","email":"directieKS@altena.be","name":"Vrije Kleuterschool","phone":"03 457 03 43"},"geometry":{"type":"Point","coordinates":[4.447942243185658,51.14041474423741]}},{"type":"Feature","properties":{"website":"www.veldhoppertje.be","language:nl":"yes","capacity":147,"amenity":"kindergarten","isced:2011:level":"early_education","email":"directie@veldhoppertje.be","name":"Gemeentelijke Kleuterschool - Kaart 't Veldhoppertje","phone":"03 653 15 89"},"geometry":{"type":"Point","coordinates":[4.479836625186585,51.30222903211788]}},{"type":"Feature","properties":{"website":"www.olvrode.be","language:nl":"yes","capacity":230,"amenity":"kindergarten","isced:2011:level":"early_education","email":"secretariaat@olvrodebasis.be","name":"Vrije Kleuterschool Onze- Lieve- Vrouwinstituut","phone":"02 380 10 15"},"geometry":{"type":"Point","coordinates":[4.34306016580239,50.74546361385593]}},{"type":"Feature","properties":{"website":"www.kleuterschooldecroly.be","language:nl":"yes","capacity":227,"amenity":"kindergarten","isced:2011:level":"early_education","email":"decroly.kleuter@sgr21.be","name":"GO! kleuterschool Ronse - Dr. Ovide Decroly Kleuterscholen","phone":"055 21 49 56"},"geometry":{"type":"Point","coordinates":[3.6246296841329033,50.74921251643438]}},{"type":"Feature","properties":{"website":"basisschoolzilverenhoek.be","language:nl":"yes","capacity":311,"amenity":"kindergarten","isced:2011:level":"early_education","email":"directieks@basisschoolzilverenhoek.be","name":"VKS Maria Immaculata","phone":"03 664 36 23"},"geometry":{"type":"Point","coordinates":[4.435683416552607,51.30699926723874]}},{"type":"Feature","properties":{"website":"www.ksdsintjan.be","language:nl":"yes","capacity":168,"amenity":"kindergarten","isced:2011:level":"early_education","email":"basisschool.sj@ksdiest.be","name":"Vrije Kleuterschool KSD Sint-Jan","phone":"013 35 19 20"},"geometry":{"type":"Point","coordinates":[5.055258335337057,50.98315404054791]}},{"type":"Feature","properties":{"website":"www.lourdes-ekeren.be","language:nl":"yes","capacity":172,"amenity":"kindergarten","isced:2011:level":"early_education","email":"ks-olv@telenet.be","name":"VKS O.-L.-V. van Lourdesinstituut","phone":"03 541 75 70"},"geometry":{"type":"Point","coordinates":[4.417630531384198,51.28201324931123]}},{"type":"Feature","properties":{"website":"www.de7sprong.be","language:nl":"yes","capacity":191,"amenity":"kindergarten","isced:2011:level":"early_education","email":"directie@de7sprong.be","name":"Vrije Kleuterschool - De Zevensprong","phone":"03 660 07 70"},"geometry":{"type":"Point","coordinates":[4.604193203452175,51.34272458545098]}},{"type":"Feature","properties":{"website":"www.minivirgo.be","language:nl":"yes","capacity":226,"amenity":"kindergarten","isced:2011:level":"early_education","email":"ingridv@minivirgo.be","name":"Vrije Kleuterschool - Mini Virgo","phone":"052 30 31 07"},"geometry":{"type":"Point","coordinates":[4.305701794259206,51.00219890099964]}},{"type":"Feature","properties":{"website":"www.st-jozefsschool.be","language:nl":"yes","capacity":152,"amenity":"kindergarten","isced:2011:level":"early_education","email":"sint.jozef@arkorum.be","name":"Vrije Kleuterschool Arkorum 07 Sint-Jozef","phone":"051 22 35 36"},"geometry":{"type":"Point","coordinates":[3.135219084259621,50.94036505922361]}},{"type":"Feature","properties":{"website":"www.westdiep.be","language:nl":"yes","capacity":174,"amenity":"kindergarten","isced:2011:level":"early_education","email":"directie@westdiepkleuter.be","name":"Vrije Kleuterschool","phone":"059 70 07 85"},"geometry":{"type":"Point","coordinates":[2.9059523204995448,51.2203661728365]}},{"type":"Feature","properties":{"website":"www.dewegwijzer-lummen.be","language:nl":"yes","capacity":206,"amenity":"kindergarten","isced:2011:level":"early_education","email":"kleuterschool@dewegwijzer-lummen.be","name":"Vrije Kleuterschool - De Wegwijzer","phone":"013 52 19 43"},"geometry":{"type":"Point","coordinates":[5.19344397572817,50.98595982103852]}},{"type":"Feature","properties":{"website":"www.campustoverfluit.be","language:nl":"yes","capacity":112,"amenity":"kindergarten","isced:2011:level":"early_education","email":"sabine.vanheeswijck@campustoverfluit.be","name":"GO! kleuterschool Toverfluit","phone":"02 413 11 32"},"geometry":{"type":"Point","coordinates":[4.2968697013104915,50.850728447122705]}},{"type":"Feature","properties":{"website":"www.kraal.be","language:nl":"yes","capacity":198,"amenity":"kindergarten","isced:2011:level":"early_education","email":"info@kraal.be","name":"Vrije Kleuterschool - De Kraal","phone":"016 20 82 74"},"geometry":{"type":"Point","coordinates":[4.6707541519277065,50.90763713592386]}},{"type":"Feature","properties":{"website":"www.de-link.be","language:nl":"yes","capacity":148,"amenity":"kindergarten","isced:2011:level":"early_education","email":"directiekleuter@de-link.be","name":"Vrije Kleuterschool - De Link","phone":"03 457 04 22"},"geometry":{"type":"Point","coordinates":[4.443356274303437,51.15831364210462]}},{"type":"Feature","properties":{"website":"www.donboscogb.be","language:nl":"yes","capacity":222,"amenity":"kindergarten","isced:2011:level":"early_education","email":"a.vrijders@donboscogbd.be","name":"Vrije Kleuterschool","phone":"02 466 20 36"},"geometry":{"type":"Point","coordinates":[4.246013960017786,50.86386503263863]}},{"type":"Feature","properties":{"website":"www.vrijesint-clemensschool.be","language:nl":"yes","capacity":258,"amenity":"kindergarten","isced:2011:level":"early_education","email":"admdir.sint-clemens@telenet.be","name":"Vrije Kleuterschool - Sint- Clemensschool","phone":"02 657 51 95"},"geometry":{"type":"Point","coordinates":[4.475425604498604,50.766433792438036]}},{"type":"Feature","properties":{"website":"www.stedelijkonderwijs.be/degummis","language:nl":"yes","capacity":122,"amenity":"kindergarten","isced:2011:level":"early_education","email":"degummis@so.antwerpen.be","name":"Stedelijke Kleuterschool - De Gummi's - De Toverboom","phone":"03 432 92 50"},"geometry":{"type":"Point","coordinates":[4.419044468559527,51.224381283440415]}},{"type":"Feature","properties":{"website":"www.sask.be","language:nl":"yes","capacity":135,"amenity":"kindergarten","isced:2011:level":"early_education","email":"kleuter@sask.be","name":"Vrije Kleuterschool Sint-Andreaslyceum","phone":"050 28 85 10"},"geometry":{"type":"Point","coordinates":[3.2554384393288447,51.2080386597064]}},{"type":"Feature","properties":{"website":"www.centrumschoolwingene.be","language:nl":"yes","capacity":126,"amenity":"kindergarten","isced:2011:level":"early_education","email":"hubert.kaes@3span.be","name":"Vrije Kleuterschool","phone":"051 65 68 52"},"geometry":{"type":"Point","coordinates":[3.2794824940681893,51.06073334480276]}},{"type":"Feature","properties":{"website":"www.basishfam.be","language:nl":"yes","capacity":241,"amenity":"kindergarten","isced:2011:level":"early_education","email":"directeur.ks@basishfam.be","name":"Vrije Kleuterschool - Heilige Familie","phone":"03 777 82 82"},"geometry":{"type":"Point","coordinates":[4.140061074639247,51.168661872590974]}},{"type":"Feature","properties":{"website":"www.jomabasis.be","language:nl":"yes","capacity":238,"amenity":"kindergarten","isced:2011:level":"early_education","email":"directie@jomabasis.be","name":"Vrije Kleuterschool - Joma","phone":""},"geometry":{"type":"Point","coordinates":[4.441608123918671,51.254623123486084]}},{"type":"Feature","properties":{"website":"www.koca.be","school:for":"special_education","language:nl":"yes","capacity":71,"amenity":"kindergarten","isced:2011:level":"early_education","email":"basisonderwijs@koca.be","name":"Vrije Kleuterschool voor Buitengewoon Onderwijs - KOCA","phone":"03 244 94 94"},"geometry":{"type":"Point","coordinates":[4.4018253699302345,51.2054584937161]}}]}